{
  "type": "FeatureCollection",
  "features": [
    {
      "type": "Feature",
      "properties": {
        "norad_id": 40115,
        "name": "WORLDVIEW-3 (WV-3)",
        "group": "resource",
        "lat": -47.01360713526022,
        "lon": 69.10019899475556,
        "alt_km": 621.1128224766235,
        "timestamp": "2025-12-14T07:33:19.135039+00:00",
        "meta_object_name": "WORLDVIEW-3 (WV-3)",
        "meta_object_id": "2014-048A",
        "meta_epoch": "2025-12-13T15:36:12.578112",
        "meta_mean_motion": 14.85515436,
        "meta_eccentricity": 0.00048673,
        "meta_inclination": 97.8615,
        "meta_ra_of_asc_node": 59.919,
        "meta_arg_of_pericenter": 181.4476,
        "meta_mean_anomaly": 178.6726,
        "meta_ephemeris_type": 0,
        "meta_classification_type": "U",
        "meta_norad_cat_id": 40115,
        "meta_element_set_no": 999,
        "meta_rev_at_epoch": 61437,
        "meta_bstar": 0.0001863981,
        "meta_mean_motion_dot": 1.556e-05,
        "meta_mean_motion_ddot": 0,
        "tle_line1": "1 40115U 14048A   25347.65014558  .00001556  00000+0  18640-3 0  9991",
        "tle_line2": "2 40115  97.8615  59.9190 0004867 181.4476 178.6726 14.85515436614378"
      },
      "geometry": {
        "type": "Point",
        "coordinates": [
          69.10019899475556,
          -47.01360713526022
        ]
      }
    },
    {
      "type": "Feature",
      "properties": {
        "norad_id": 40118,
        "name": "GAOFEN-2",
        "group": "resource",
        "lat": 75.4735434979619,
        "lon": -99.46255976852841,
        "alt_km": 614.1949609857411,
        "timestamp": "2025-12-14T07:33:19.135050+00:00",
        "meta_object_name": "GAOFEN-2",
        "meta_object_id": "2014-049A",
        "meta_epoch": "2025-12-13T16:29:55.642848",
        "meta_mean_motion": 14.80614512,
        "meta_eccentricity": 0.00086321,
        "meta_inclination": 98.0383,
        "meta_ra_of_asc_node": 46.8573,
        "meta_arg_of_pericenter": 109.9277,
        "meta_mean_anomaly": 250.2866,
        "meta_ephemeris_type": 0,
        "meta_classification_type": "U",
        "meta_norad_cat_id": 40118,
        "meta_element_set_no": 999,
        "meta_rev_at_epoch": 61178,
        "meta_bstar": 0.00023616679,
        "meta_mean_motion_dot": 1.76e-05,
        "meta_mean_motion_ddot": 0,
        "tle_line1": "1 40118U 14049A   25347.68744957  .00001760  00000+0  23617-3 0  9998",
        "tle_line2": "2 40118  98.0383  46.8573 0008632 109.9277 250.2866 14.80614512611788"
      },
      "geometry": {
        "type": "Point",
        "coordinates": [
          -99.46255976852841,
          75.4735434979619
        ]
      }
    },
    {
      "type": "Feature",
      "properties": {
        "norad_id": 40143,
        "name": "YAOGAN-21",
        "group": "resource",
        "lat": -50.26185423145272,
        "lon": 40.27579753615809,
        "alt_km": 501.20104252898545,
        "timestamp": "2025-12-14T07:33:19.135060+00:00",
        "meta_object_name": "YAOGAN-21",
        "meta_object_id": "2014-053A",
        "meta_epoch": "2025-12-13T16:00:59.363136",
        "meta_mean_motion": 15.23696572,
        "meta_eccentricity": 0.00096628,
        "meta_inclination": 97.1756,
        "meta_ra_of_asc_node": 30.94,
        "meta_arg_of_pericenter": 37.92,
        "meta_mean_anomaly": 322.2717,
        "meta_ephemeris_type": 0,
        "meta_classification_type": "U",
        "meta_norad_cat_id": 40143,
        "meta_element_set_no": 999,
        "meta_rev_at_epoch": 62668,
        "meta_bstar": 0.00039668215,
        "meta_mean_motion_dot": 9.47e-05,
        "meta_mean_motion_ddot": 0,
        "tle_line1": "1 40143U 14053A   25347.66735374  .00009470  00000+0  39668-3 0  9991",
        "tle_line2": "2 40143  97.1756  30.9400 0009662  37.9200 322.2717 15.23696572626687"
      },
      "geometry": {
        "type": "Point",
        "coordinates": [
          40.27579753615809,
          -50.26185423145272
        ]
      }
    },
    {
      "type": "Feature",
      "properties": {
        "norad_id": 40275,
        "name": "YAOGAN-22",
        "group": "resource",
        "lat": 44.942101757971706,
        "lon": 120.83608536961471,
        "alt_km": 1202.1243041898533,
        "timestamp": "2025-12-14T07:33:19.135071+00:00",
        "meta_object_name": "YAOGAN-22",
        "meta_object_id": "2014-063A",
        "meta_epoch": "2025-12-13T16:43:13.177056",
        "meta_mean_motion": 13.15522642,
        "meta_eccentricity": 0.00059602,
        "meta_inclination": 100.7422,
        "meta_ra_of_asc_node": 131.1297,
        "meta_arg_of_pericenter": 245.9397,
        "meta_mean_anomaly": 114.1091,
        "meta_ephemeris_type": 0,
        "meta_classification_type": "U",
        "meta_norad_cat_id": 40275,
        "meta_element_set_no": 999,
        "meta_rev_at_epoch": 53542,
        "meta_bstar": 1.6334489e-05,
        "meta_mean_motion_dot": -4e-07,
        "meta_mean_motion_ddot": 0,
        "tle_line1": "1 40275U 14063A   25347.69668029 -.00000040  00000+0  16334-4 0  9994",
        "tle_line2": "2 40275 100.7422 131.1297 0005960 245.9397 114.1091 13.15522642535426"
      },
      "geometry": {
        "type": "Point",
        "coordinates": [
          120.83608536961471,
          44.942101757971706
        ]
      }
    },
    {
      "type": "Feature",
      "properties": {
        "norad_id": 40298,
        "name": "ASNARO",
        "group": "resource",
        "lat": -26.25959059463339,
        "lon": 67.88109137374899,
        "alt_km": 516.0296412493308,
        "timestamp": "2025-12-14T07:33:19.135082+00:00",
        "meta_object_name": "ASNARO",
        "meta_object_id": "2014-070A",
        "meta_epoch": "2025-12-13T15:52:02.800992",
        "meta_mean_motion": 15.19533369,
        "meta_eccentricity": 0.00056349,
        "meta_inclination": 97.365,
        "meta_ra_of_asc_node": 63.5847,
        "meta_arg_of_pericenter": 118.353,
        "meta_mean_anomaly": 241.8274,
        "meta_ephemeris_type": 0,
        "meta_classification_type": "U",
        "meta_norad_cat_id": 40298,
        "meta_element_set_no": 999,
        "meta_rev_at_epoch": 61583,
        "meta_bstar": 0.00088440535,
        "meta_mean_motion_dot": 0.00018766,
        "meta_mean_motion_ddot": 0,
        "tle_line1": "1 40298U 14070A   25347.66114353  .00018766  00000+0  88441-3 0  9990",
        "tle_line2": "2 40298  97.3650  63.5847 0005634 118.3530 241.8274 15.19533369615833"
      },
      "geometry": {
        "type": "Point",
        "coordinates": [
          67.88109137374899,
          -26.25959059463339
        ]
      }
    },
    {
      "type": "Feature",
      "properties": {
        "norad_id": 40310,
        "name": "YAOGAN-24",
        "group": "resource",
        "lat": 59.53545615976178,
        "lon": 105.36545807856827,
        "alt_km": 632.4722361048289,
        "timestamp": "2025-12-14T07:33:19.135092+00:00",
        "meta_object_name": "YAOGAN-24",
        "meta_object_id": "2014-072A",
        "meta_epoch": "2025-12-13T15:00:50.097312",
        "meta_mean_motion": 14.76182881,
        "meta_eccentricity": 0.00147979,
        "meta_inclination": 98.1217,
        "meta_ra_of_asc_node": 118.7232,
        "meta_arg_of_pericenter": 135.2228,
        "meta_mean_anomaly": 225.0179,
        "meta_ephemeris_type": 0,
        "meta_classification_type": "U",
        "meta_norad_cat_id": 40310,
        "meta_element_set_no": 999,
        "meta_rev_at_epoch": 59634,
        "meta_bstar": 0.00031551035,
        "meta_mean_motion_dot": 2.133e-05,
        "meta_mean_motion_ddot": 0,
        "tle_line1": "1 40310U 14072A   25347.62557983  .00002133  00000+0  31551-3 0  9994",
        "tle_line2": "2 40310  98.1217 118.7232 0014797 135.2228 225.0179 14.76182881596342"
      },
      "geometry": {
        "type": "Point",
        "coordinates": [
          105.36545807856827,
          59.53545615976178
        ]
      }
    },
    {
      "type": "Feature",
      "properties": {
        "norad_id": 40336,
        "name": "CBERS 4",
        "group": "resource",
        "lat": -67.48074996503794,
        "lon": 66.97308931275231,
        "alt_km": 781.7591374681615,
        "timestamp": "2025-12-14T07:33:19.135103+00:00",
        "meta_object_name": "CBERS 4",
        "meta_object_id": "2014-079A",
        "meta_epoch": "2025-12-13T16:49:15.081600",
        "meta_mean_motion": 14.35518637,
        "meta_eccentricity": 0.00016496,
        "meta_inclination": 98.3306,
        "meta_ra_of_asc_node": 45.6845,
        "meta_arg_of_pericenter": 110.9749,
        "meta_mean_anomaly": 249.1614,
        "meta_ephemeris_type": 0,
        "meta_classification_type": "U",
        "meta_norad_cat_id": 40336,
        "meta_element_set_no": 999,
        "meta_rev_at_epoch": 57734,
        "meta_bstar": 0.00011530531,
        "meta_mean_motion_dot": 2.9e-06,
        "meta_mean_motion_ddot": 0,
        "tle_line1": "1 40336U 14079A   25347.70086900  .00000290  00000+0  11531-3 0  9992",
        "tle_line2": "2 40336  98.3306  45.6845 0001649 110.9749 249.1614 14.35518637577346"
      },
      "geometry": {
        "type": "Point",
        "coordinates": [
          66.97308931275231,
          -67.48074996503794
        ]
      }
    }
  ]
}